CCSDS_OMM_VERS = 2.0
CREATION_DATE  = 
ORIGINATOR     = 

OBJECT_NAME    = STARLINK-34861
OBJECT_ID      = 2025-254W
CENTER_NAME    = EARTH
REF_FRAME      = TEME
TIME_SYSTEM    = UTC
MEAN_ELEMENT_THEORY = SGP/SGP4

EPOCH          = 2025-11-29T17:30:56.615616
MEAN_MOTION    = 15.74282279
ECCENTRICITY   = .0002958
INCLINATION    = 53.1578
RA_OF_ASC_NODE = 339.4546
ARG_OF_PERICENTER = 75.5561
MEAN_ANOMALY   = 284.5787

EPHEMERIS_TYPE = 0
CLASSIFICATION_TYPE = U
NORAD_CAT_ID   = 66368
ELEMENT_SET_NO = 999
REV_AT_EPOCH   = 363
BSTAR          = .23987E-2
MEAN_MOTION_DOT = .367934E-2
MEAN_MOTION_DDOT = 0

CCSDS_OMM_VERS = 2.0
CREATION_DATE  = 
ORIGINATOR     = 

OBJECT_NAME    = STARLINK-35795
OBJECT_ID      = 2025-254X
CENTER_NAME    = EARTH
REF_FRAME      = TEME
TIME_SYSTEM    = UTC
MEAN_ELEMENT_THEORY = SGP/SGP4

EPOCH          = 2025-11-29T17:31:25.553568
MEAN_MOTION    = 15.74277933
ECCENTRICITY   = .0002418
INCLINATION    = 53.1577
RA_OF_ASC_NODE = 339.4570
ARG_OF_PERICENTER = 80.6658
MEAN_ANOMALY   = 279.4636

EPHEMERIS_TYPE = 0
CLASSIFICATION_TYPE = U
NORAD_CAT_ID   = 66369
ELEMENT_SET_NO = 999
REV_AT_EPOCH   = 363
BSTAR          = .21915E-2
MEAN_MOTION_DOT = .334689E-2
MEAN_MOTION_DDOT = 0

CCSDS_OMM_VERS = 2.0
CREATION_DATE  = 
ORIGINATOR     = 

OBJECT_NAME    = STARLINK-35824
OBJECT_ID      = 2025-254Y
CENTER_NAME    = EARTH
REF_FRAME      = TEME
TIME_SYSTEM    = UTC
MEAN_ELEMENT_THEORY = SGP/SGP4

EPOCH          = 2025-11-29T17:30:26.749728
MEAN_MOTION    = 15.74245317
ECCENTRICITY   = .0001587
INCLINATION    = 53.1578
RA_OF_ASC_NODE = 339.4525
ARG_OF_PERICENTER = 93.0960
MEAN_ANOMALY   = 267.0241

EPHEMERIS_TYPE = 0
CLASSIFICATION_TYPE = U
NORAD_CAT_ID   = 66370
ELEMENT_SET_NO = 999
REV_AT_EPOCH   = 363
BSTAR          = .1521E-2
MEAN_MOTION_DOT = .22883E-2
MEAN_MOTION_DDOT = 0

CCSDS_OMM_VERS = 2.0
CREATION_DATE  = 
ORIGINATOR     = 

OBJECT_NAME    = STARLINK-35804
OBJECT_ID      = 2025-254Z
CENTER_NAME    = EARTH
REF_FRAME      = TEME
TIME_SYSTEM    = UTC
MEAN_ELEMENT_THEORY = SGP/SGP4

EPOCH          = 2025-11-29T17:29:28.308768
MEAN_MOTION    = 15.74255109
ECCENTRICITY   = .0001585
INCLINATION    = 53.1577
RA_OF_ASC_NODE = 339.4474
ARG_OF_PERICENTER = 87.7816
MEAN_ANOMALY   = 272.3385

EPHEMERIS_TYPE = 0
CLASSIFICATION_TYPE = U
NORAD_CAT_ID   = 66371
ELEMENT_SET_NO = 999
REV_AT_EPOCH   = 363
BSTAR          = .16428E-2
MEAN_MOTION_DOT = .247889E-2
MEAN_MOTION_DDOT = 0

CCSDS_OMM_VERS = 2.0
CREATION_DATE  = 
ORIGINATOR     = 

OBJECT_NAME    = STARLINK-35821
OBJECT_ID      = 2025-254AA
CENTER_NAME    = EARTH
REF_FRAME      = TEME
TIME_SYSTEM    = UTC
MEAN_ELEMENT_THEORY = SGP/SGP4

EPOCH          = 2025-11-29T17:29:57.530112
MEAN_MOTION    = 15.74253633
ECCENTRICITY   = .0001336
INCLINATION    = 53.1579
RA_OF_ASC_NODE = 339.4510
ARG_OF_PERICENTER = 103.7922
MEAN_ANOMALY   = 256.3247

EPHEMERIS_TYPE = 0
CLASSIFICATION_TYPE = U
NORAD_CAT_ID   = 66372
ELEMENT_SET_NO = 999
REV_AT_EPOCH   = 363
BSTAR          = .16508E-2
MEAN_MOTION_DOT = .249106E-2
MEAN_MOTION_DDOT = 0

CCSDS_OMM_VERS = 2.0
CREATION_DATE  = 
ORIGINATOR     = 

OBJECT_NAME    = STARLINK-35809
OBJECT_ID      = 2025-254AB
CENTER_NAME    = EARTH
REF_FRAME      = TEME
TIME_SYSTEM    = UTC
MEAN_ELEMENT_THEORY = SGP/SGP4

EPOCH          = 2025-11-29T17:28:59.102976
MEAN_MOTION    = 15.74258488
ECCENTRICITY   = .0001605
INCLINATION    = 53.1576
RA_OF_ASC_NODE = 339.4452
ARG_OF_PERICENTER = 75.2165
MEAN_ANOMALY   = 284.9032

EPHEMERIS_TYPE = 0
CLASSIFICATION_TYPE = U
NORAD_CAT_ID   = 66373
ELEMENT_SET_NO = 999
REV_AT_EPOCH   = 363
BSTAR          = .16965E-2
MEAN_MOTION_DOT = .256308E-2
MEAN_MOTION_DDOT = 0

CCSDS_OMM_VERS = 2.0
CREATION_DATE  = 
ORIGINATOR     = 

OBJECT_NAME    = STARLINK-35831
OBJECT_ID      = 2025-254AC
CENTER_NAME    = EARTH
REF_FRAME      = TEME
TIME_SYSTEM    = UTC
MEAN_ELEMENT_THEORY = SGP/SGP4

EPOCH          = 2025-11-29T17:28:29.987904
MEAN_MOTION    = 15.74258177
ECCENTRICITY   = .000189
INCLINATION    = 53.1575
RA_OF_ASC_NODE = 339.4429
ARG_OF_PERICENTER = 86.1282
MEAN_ANOMALY   = 273.9954

EPHEMERIS_TYPE = 0
CLASSIFICATION_TYPE = U
NORAD_CAT_ID   = 66374
ELEMENT_SET_NO = 999
REV_AT_EPOCH   = 363
BSTAR          = .16967E-2
MEAN_MOTION_DOT = .256326E-2
MEAN_MOTION_DDOT = 0

CCSDS_OMM_VERS = 2.0
CREATION_DATE  = 
ORIGINATOR     = 

OBJECT_NAME    = STARLINK-35826
OBJECT_ID      = 2025-254AD
CENTER_NAME    = EARTH
REF_FRAME      = TEME
TIME_SYSTEM    = UTC
MEAN_ELEMENT_THEORY = SGP/SGP4

EPOCH          = 2025-11-29T17:28:01.169184
MEAN_MOTION    = 15.74282828
ECCENTRICITY   = .0002479
INCLINATION    = 53.1574
RA_OF_ASC_NODE = 339.4409
ARG_OF_PERICENTER = 80.0717
MEAN_ANOMALY   = 280.0583

EPHEMERIS_TYPE = 0
CLASSIFICATION_TYPE = U
NORAD_CAT_ID   = 66375
ELEMENT_SET_NO = 999
REV_AT_EPOCH   = 363
BSTAR          = .2397E-2
MEAN_MOTION_DOT = .36765E-2
MEAN_MOTION_DDOT = 0

CCSDS_OMM_VERS = 2.0
CREATION_DATE  = 
ORIGINATOR     = 

OBJECT_NAME    = SHIYAN-32 01
OBJECT_ID      = 2025-255A
CENTER_NAME    = EARTH
REF_FRAME      = TEME
TIME_SYSTEM    = UTC
MEAN_ELEMENT_THEORY = SGP/SGP4

EPOCH          = 2025-11-29T20:37:13.285056
MEAN_MOTION    = 15.42107525
ECCENTRICITY   = .0013349
INCLINATION    = 52.9966
RA_OF_ASC_NODE = 239.2802
ARG_OF_PERICENTER = 2.3778
MEAN_ANOMALY   = 357.7287

EPHEMERIS_TYPE = 0
CLASSIFICATION_TYPE = U
NORAD_CAT_ID   = 66376
ELEMENT_SET_NO = 999
REV_AT_EPOCH   = 336
BSTAR          = .42732E-3
MEAN_MOTION_DOT = .18247E-3
MEAN_MOTION_DDOT = 0

CCSDS_OMM_VERS = 2.0
CREATION_DATE  = 
ORIGINATOR     = 

OBJECT_NAME    = CZ-11 DEB
OBJECT_ID      = 2025-255B
CENTER_NAME    = EARTH
REF_FRAME      = TEME
TIME_SYSTEM    = UTC
MEAN_ELEMENT_THEORY = SGP/SGP4

EPOCH          = 2025-11-29T20:24:01.512000
MEAN_MOTION    = 15.43210548
ECCENTRICITY   = .0014026
INCLINATION    = 52.9962
RA_OF_ASC_NODE = 239.2229
ARG_OF_PERICENTER = 0.0752
MEAN_ANOMALY   = 0.0252

EPHEMERIS_TYPE = 0
CLASSIFICATION_TYPE = U
NORAD_CAT_ID   = 66377
ELEMENT_SET_NO = 999
REV_AT_EPOCH   = 322
BSTAR          = .82832E-3
MEAN_MOTION_DOT = .3723E-3
MEAN_MOTION_DDOT = 0

CCSDS_OMM_VERS = 2.0
CREATION_DATE  = 
ORIGINATOR     = 

OBJECT_NAME    = SHIYAN-32 02
OBJECT_ID      = 2025-255C
CENTER_NAME    = EARTH
REF_FRAME      = TEME
TIME_SYSTEM    = UTC
MEAN_ELEMENT_THEORY = SGP/SGP4

EPOCH          = 2025-11-29T20:18:18.364896
MEAN_MOTION    = 15.43625863
ECCENTRICITY   = .0012951
INCLINATION    = 52.9972
RA_OF_ASC_NODE = 239.1999
ARG_OF_PERICENTER = 3.2110
MEAN_ANOMALY   = 356.8975

EPHEMERIS_TYPE = 0
CLASSIFICATION_TYPE = U
NORAD_CAT_ID   = 66378
ELEMENT_SET_NO = 999
REV_AT_EPOCH   = 322
BSTAR          = .12137E-2
MEAN_MOTION_DOT = .55628E-3
MEAN_MOTION_DDOT = 0

CCSDS_OMM_VERS = 2.0
CREATION_DATE  = 
ORIGINATOR     = 

OBJECT_NAME    = SHIYAN-32 03
OBJECT_ID      = 2025-255D
CENTER_NAME    = EARTH
REF_FRAME      = TEME
TIME_SYSTEM    = UTC
MEAN_ELEMENT_THEORY = SGP/SGP4

EPOCH          = 2025-11-29T20:30:13.106304
MEAN_MOTION    = 15.42465543
ECCENTRICITY   = .0015337
INCLINATION    = 52.9970
RA_OF_ASC_NODE = 239.2508
ARG_OF_PERICENTER = 3.3447
MEAN_ANOMALY   = 356.7657

EPHEMERIS_TYPE = 0
CLASSIFICATION_TYPE = U
NORAD_CAT_ID   = 66379
ELEMENT_SET_NO = 999
REV_AT_EPOCH   = 324
BSTAR          = .42349E-3
MEAN_MOTION_DOT = .18319E-3
MEAN_MOTION_DDOT = 0

