STARLINK-34861          
1 66368U 25254W   25333.72982194  .00367934  00000+0  23987-2 0  9997
2 66368  53.1578 339.4546 0002958  75.5561 284.5787 15.74282279  3637
STARLINK-35795          
1 66369U 25254X   25333.73015687  .00334689  00000+0  21915-2 0  9993
2 66369  53.1577 339.4570 0002418  80.6658 279.4636 15.74277933  3636
STARLINK-35824          
1 66370U 25254Y   25333.72947627  .00228830  00000+0  15210-2 0  9993
2 66370  53.1578 339.4525 0001587  93.0960 267.0241 15.74245317  3635
STARLINK-35804          
1 66371U 25254Z   25333.72879987  .00247889  00000+0  16428-2 0  9994
2 66371  53.1577 339.4474 0001585  87.7816 272.3385 15.74255109  3634
STARLINK-35821          
1 66372U 25254AA  25333.72913808  .00249106  00000+0  16508-2 0  9999
2 66372  53.1579 339.4510 0001336 103.7922 256.3247 15.74253633  3638
STARLINK-35809          
1 66373U 25254AB  25333.72846184  .00256308  00000+0  16965-2 0  9991
2 66373  53.1576 339.4452 0001605  75.2165 284.9032 15.74258488  3634
STARLINK-35831          
1 66374U 25254AC  25333.72812486  .00256326  00000+0  16967-2 0  9992
2 66374  53.1575 339.4429 0001890  86.1282 273.9954 15.74258177  3631
STARLINK-35826          
1 66375U 25254AD  25333.72779131  .00367650  00000+0  23970-2 0  9997
2 66375  53.1574 339.4409 0002479  80.0717 280.0583 15.74282828  3636
SHIYAN-32 01            
1 66376U 25255A   25333.85918154  .00018247  00000+0  42732-3 0  9996
2 66376  52.9966 239.2802 0013349   2.3778 357.7287 15.42107525  3363
CZ-11 DEB               
1 66377U 25255B   25333.85001750  .00037230  00000+0  82832-3 0  9990
2 66377  52.9962 239.2229 0014026   0.0752   0.0252 15.43210548  3229
SHIYAN-32 02            
1 66378U 25255C   25333.84604589  .00055628  00000+0  12137-2 0  9990
2 66378  52.9972 239.1999 0012951   3.2110 356.8975 15.43625863  3226
SHIYAN-32 03            
1 66379U 25255D   25333.85431836  .00018319  00000+0  42349-3 0  9990
2 66379  52.9970 239.2508 0015337   3.3447 356.7657 15.42465543  3241
